AMOS-17                 
1 44479U 19050A   26094.19419966  .00000109  00000+0  00000+0 0  9997
2 44479   0.0225 278.1627 0001505 105.4085 255.8331  1.00272389 24449
