[{"OBJECT_NAME":"AMOS-17","OBJECT_ID":"2019-050A","EPOCH":"2026-04-04T04:39:38.850624","MEAN_MOTION":1.00272389,"ECCENTRICITY":0.00015057,"INCLINATION":0.0225,"RA_OF_ASC_NODE":278.1627,"ARG_OF_PERICENTER":105.4085,"MEAN_ANOMALY":255.8331,"EPHEMERIS_TYPE":0,"CLASSIFICATION_TYPE":"U","NORAD_CAT_ID":44479,"ELEMENT_SET_NO":999,"REV_AT_EPOCH":2444,"BSTAR":0,"MEAN_MOTION_DOT":1.09e-6,"MEAN_MOTION_DDOT":0}]
